FLOCK 4Q-27             
1 58282U 23174AC  26027.18054665  .00042666  00000+0  86694-3 0  9993
2 58282  97.3915 114.2154 0004710 294.2786  65.7971 15.46191939123907
FLOCK 4Q-17             
1 58283U 23174AD  26027.24079895  .00067911  00000+0  98320-3 0  9992
2 58283  97.3909 117.1360 0004619 294.6402  65.4371 15.55656442124108
FLOCK 4Q-26             
1 58284U 23174AE  26027.13641527  .00039031  00000+0  75052-3 0  9997
2 58284  97.3967 115.4659 0005556 299.6066  60.4630 15.47810311123949
FLOCK 4Q-31             
1 58285U 23174AF  26027.15344604  .00042333  00000+0  82889-3 0  9991
2 58285  97.4006 115.1357 0006096 299.3365  60.7276 15.47265279123908
FLOCK 4Q-30             
1 58286U 23174AG  26027.14778223  .00044131  00000+0  85681-3 0  9990
2 58286  97.4004 115.2948 0005910 293.6432  66.4197 15.47502370123912
PICO-01B009             
1 58287U 23174AH  26027.27931255  .00071799  00000+0  10094-2 0  9996
2 58287  97.3903 116.9194 0003734 278.9868  81.0964 15.56444709124098
ICEYE-X31               
1 58288U 23174AJ  26027.30668944  .00027335  00000+0  95881-3 0  9998
2 58288  97.3934 103.5085 0003599 103.8121 256.3520 15.29402181123183
FALCONSAT-10            
1 58291U 23174AM  26027.13989462  .00008658  00000+0  33806-3 0  9990
2 58291  97.3950 104.6715 0007968 335.4251  24.6606 15.26110153123248
ICEYE-X34               
1 58294U 23174AQ  26027.25152128  .00061028  00000+0  11753-2 0  9993
2 58294  97.3988 113.6122 0005139 299.2098  60.8638 15.47663363123839
SPACEVAN-001            
1 58295U 23174AR  26027.28372104  .00001300  00000+0  19534-4 0  9999
2 58295  97.3946 119.0893 0007425 241.7001 118.3505 15.56906086124212
PELICAN-3001            
1 58296U 23174AS  26026.17510899  .00012963  00000+0  19907-3 0  9992
2 58296  97.4045 119.1146 0008797 235.6144 124.4278 15.54366566123933
UMBRA-07                
1 58297U 23174AT  26027.14351416  .00016822  00000+0  11516-2 0  9994
2 58297  97.4000  88.4032 0003647 178.3704 181.7537 15.06147385122162
SPIP                    
1 58298U 23174AU  26027.26086538  .00007708  00000+0  30064-3 0  9991
2 58298  97.3983 105.1803 0008767 332.0505  28.0261 15.26177493123276
AETHER-2                
1 58299U 23174AV  26027.13624883  .00010110  00000+0  32376-3 0  9998
2 58299  97.4002 110.3158 0006262 299.7915  60.2703 15.32562738123617
ION SCV-013             
1 58300U 23174AW  26027.32332163  .00002351  00000+0  15569-3 0  9992
2 58300  97.6372  84.1821 0098956 315.3628  43.9661 15.04394657120355
IMPULSE-1 MIRA          
1 58301U 23174AX  26027.22672400  .00019911  00000+0  59998-3 0  9997
2 58301  97.5294 110.1948 0078507 263.4152  95.8147 15.31299748123299
ICEYE-X35               
1 58302U 23174AY  26027.27207495  .00044120  00000+0  10516-2 0  9993
2 58302  97.3926 109.1092 0010769 346.4616  13.6340 15.41389450123565
FLOCK 4Q-25             
1 58303U 23174AZ  26026.16862230  .00053143  00000+0  87585-3 0  9991
2 58303  97.3923 114.8751 0004292 285.0555  75.0222 15.52137117123869
FLOCK 4Q-29             
1 58304U 23174BA  26027.15133732  .00043456  00000+0  86851-3 0  9991
2 58304  97.3995 114.9586 0005939 285.4208  74.6386 15.46663893123891
FLOCK 4Q-22             
1 58306U 23174BC  26027.17624241  .00045968  00000+0  85086-3 0  9994
2 58306  97.3909 115.0657 0005636 279.3524  80.7089 15.48871939123966
FLOCK 4Q-23             
1 58307U 23174BD  26027.14262809  .00063350  00000+0  10798-2 0  9992
2 58307  97.4007 116.3508 0005858 287.7665  72.2947 15.51139257123986
FLOCK 4Q-33             
1 58308U 23174BE  26027.14090126  .00044557  00000+0  84723-3 0  9992
2 58308  97.3932 114.9984 0005634 282.3498  77.7122 15.48105460123948
FLOCK 4Q-35             
1 58309U 23174BF  26027.23005971  .00042874  00000+0  84187-3 0  9991
2 58309  97.3972 115.3045 0006515 294.6187  65.4383 15.47177551123948
FLOCK 4Q-20             
1 58313U 23174BK  26026.93799243  .00060232  00000+0  89945-3 0  9999
2 58313  97.3994 117.6885 0006099 282.8984  77.1589 15.54831421124068
FLOCK 4Q-34             
1 58316U 23174BN  26027.15805601  .00056983  00000+0  96548-3 0  9998
2 58316  97.3943 115.8095 0006580 290.9071  69.1476 15.51329597123990
FLOCK 4Q-7              
1 58318U 23174BQ  26027.17623423  .00041189  00000+0  83342-3 0  9992
2 58318  97.4001 114.8158 0006908 282.2432  77.8044 15.46309314123891
FLOCK 4Q-15             
1 58319U 23174BR  26027.15676434  .00109173  00000+0  18373-2 0  9990
2 58319  97.3991 116.6096 0006345 278.4405  81.6128 15.51315298124017
FLOCK 4Q-2              
1 58320U 23174BS  26027.26012953  .00032689  00000+0  74611-3 0  9999
2 58320  97.3931 113.0126 0006122 286.0767  73.9806 15.42799563123823
PROTOMETHEE             
1 58321U 23174BT  26027.18611196  .00009486  00000+0  33127-3 0  9991
2 58321  97.3905 106.4023 0006780 314.2258  45.8425 15.29774882123407
FLOCK 4Q-9              
1 58322U 23174BU  26027.13989394  .00032264  00000+0  74440-3 0  9998
2 58322  97.3967 112.9371 0006052 290.8153  69.2446 15.42478843123797
OBSERVER-1A             
1 58323U 23174BV  26027.26799677  .00017027  00000+0  50359-3 0  9999
2 58323  97.4051 110.1742 0007296 305.2462  54.8098 15.34959340123565
PICO-01A003             
1 58326U 23174BY  26027.29230600  .00028771  00000+0  72164-3 0  9997
2 58326  97.3909 110.7015 0005669 317.3244  42.7561 15.39976123123689
FLOCK 4Q-4              
1 58327U 23174BZ  26026.87343234  .00029361  00000+0  68520-3 0  9996
2 58327  97.3923 112.0827 0005765 315.2104  44.8677 15.42157077123731
FLOCK 4Q-13             
1 58328U 23174CA  26027.23419382  .00036257  00000+0  78188-3 0  9999
2 58328  97.4071 114.6192 0006269 306.7328  53.3344 15.44467027123864
FLOCK 4Q-21             
1 58329U 23174CB  26025.97735324  .00054819  00000+0  88347-3 0  9998
2 58329  97.3995 115.8509 0005060 313.0305  47.0524 15.52751800123851
BRO-10                  
1 58331U 23174CD  26027.28766557  .00114339  00000+0  12780-2 0  9990
2 58331  97.3779 118.6420 0005054 246.7180 113.3547 15.62360400124231
OUTPOST MISSION 2       
1 58334U 23174CG  26027.29059742  .00041959  00000+0  80944-3 0  9990
2 58334  97.4028 115.9535 0005653 272.0900  87.9702 15.47701116123960
LEMUR-2-JK0903EM1407    
1 58336U 23174CJ  26027.23562611  .00033226  00000+0  71866-3 0  9991
2 58336  97.3975 114.5257 0005039 263.5385  96.5290 15.44404066123923
LEMUR-2-MJR092620       
1 58340U 23174CN  26027.15833453  .00017308  00000+0  42203-3 0  9998
2 58340  97.4043 115.0148 0005629 266.0909  93.9694 15.40939731123900
O3B MPOWER F5           
1 58346U 23175A   26027.18564290 -.00000013  00000+0  00000+0 0  9999
2 58346   0.0374 356.1386 0004163 309.6230  54.1961  5.00115532 42375
O3B MPOWER F6           
1 58347U 23175B   26020.48940165 -.00000012  00000+0  00000+0 0  9994
2 58347   0.0440   0.8814 0005878 281.3856  77.6639  5.00114980 40964
HAIYANG-3A              
1 58349U 23176A   26027.30621524  .00000282  00000+0  11625-3 0  9997
2 58349  98.5601 106.8124 0010723  84.4388 275.8020 14.34122235115121
STARLINK-30907          
1 58352U 23177B   26026.81937363 -.00001408  00000+0 -89170-4 0  9992
2 58352  43.0014 219.4121 0000556 254.3116 105.7665 15.02543068122004
STARLINK-30896          
1 58353U 23177C   26026.57723848  .00008885  00000+0  33239-3 0  9995
2 58353  42.9984  86.6303 0000979 246.4199 113.6550 15.27541042123398
STARLINK-30832          
1 58354U 23177D   26027.24700091 -.00001442  00000+0 -91758-4 0  9991
2 58354  43.0031 216.6108 0001723 263.8763  96.1883 15.02516363121933
STARLINK-30903          
1 58355U 23177E   26026.56123043  .00001339  00000+0  11414-3 0  9995
2 58355  43.0023 220.9303 0001269 248.2383 111.8324 15.02549508121875
STARLINK-30905          
1 58356U 23177F   26026.88140612  .00000588  00000+0  58557-4 0  9997
2 58356  43.0020 218.9973 0001363 257.8912 102.1778 15.02548073121863
STARLINK-30842          
1 58357U 23177G   26027.19493922  .00001227  00000+0  10583-3 0  9995
2 58357  43.0028 203.2747 0001312 268.9112  91.1580 15.02554227122134
STARLINK-30858          
1 58358U 23177H   26026.95344884  .00014266  00000+0  10695-2 0  9991
2 58358  43.0024 218.7112 0000775 226.8794 133.1983 15.02517289121948
STARLINK-30878          
1 58359U 23177J   26026.57664859  .00002202  00000+0  17803-3 0  9993
2 58359  42.9997 220.1830 0001014 260.8203  99.2524 15.02540689121886
STARLINK-30897          
1 58360U 23177K   26026.89025873  .00007409  00000+0  56242-3 0  9991
2 58360  43.0021 219.0941 0002255 248.3785 111.6817 15.02572486121921
STARLINK-30885          
1 58361U 23177L   26026.88031802  .00001346  00000+0  11473-3 0  9991
2 58361  43.0015 219.0249 0001376 266.7423  93.3262 15.02522059121934
STARLINK-30890          
1 58362U 23177M   26026.87697423 -.00000751  00000+0 -40517-4 0  9991
2 58362  43.0018 218.9968 0000815 260.3669  99.7081 15.02540587121871
STARLINK-30909          
1 58363U 23177N   26027.20825453  .00000129  00000+0  24583-4 0  9998
2 58363  43.0021 217.1828 0000689 277.6496  82.4268 15.02543142121977
STARLINK-30904          
1 58364U 23177P   26026.87883213 -.00000135  00000+0  50516-5 0  9993
2 58364  43.0030 217.2962 0000938 243.2618 116.8128 15.02533282121948
STARLINK-30918          
1 58365U 23177Q   26026.93345695  .00000792  00000+0  73680-4 0  9992
2 58365  43.0028 218.5610 0001136 273.7421  86.3292 15.02531006121935
STARLINK-30892          
1 58366U 23177R   26026.87031162  .00001322  00000+0  11290-3 0  9995
2 58366  43.0019 218.9463 0001434 269.2659  90.8019 15.02532782121939
STARLINK-30891          
1 58367U 23177S   26026.93012681 -.00000341  00000+0 -10166-4 0  9992
2 58367  42.9995 218.5335 0000742 238.7619 121.3151 15.02541655121872
STARLINK-30889          
1 58368U 23177T   26026.93235096 -.00000703  00000+0 -37014-4 0  9993
2 58368  42.9994 218.5502 0000532 275.0358  85.0423 15.02537433121933
